#cP2022 11 13  0  0  0.00000000      96 ORBIT IGb14 HLM  IGS
## 2236      0.00000000   900.00000000 59896 0.0000000000000
+   31   G01G02G03G04G05G06G07G08G09G10G11G12G13G14G15G16G17
+        G18G19G20G21G22G23G24G25G26G27G29G30G31G32  0  0  0
+          0  0  0  0  0  0  0  0  0  0  0  0  0  0  0  0  0
+          0  0  0  0  0  0  0  0  0  0  0  0  0  0  0  0  0
+          0  0  0  0  0  0  0  0  0  0  0  0  0  0  0  0  0
++         2  2  2  2  2  2  2  1  2  2  3  2  2  2  2  2  2
++         2  2  2  2  1  2  2  2  2  2  2  2  2  2  0  0  0
++         0  0  0  0  0  0  0  0  0  0  0  0  0  0  0  0  0
++         0  0  0  0  0  0  0  0  0  0  0  0  0  0  0  0  0
++         0  0  0  0  0  0  0  0  0  0  0  0  0  0  0  0  0
%c G  cc GPS ccc cccc cccc cccc cccc ccccc ccccc ccccc ccccc
%c cc cc ccc ccc cccc cccc cccc cccc ccccc ccccc ccccc ccccc
%f  1.2500000  1.025000000  0.00000000000  0.000000000000000
%f  0.0000000  0.000000000  0.00000000000  0.000000000000000
%i    0    0    0    0      0      0      0      0         0
%i    0    0    0    0      0      0      0      0         0
/* FINAL ORBIT COMBINATION FROM WEIGHTED AVERAGE OF:        
/* cod emr esa gfz grg jpl mit ngs sio                      
/* REFERENCED TO IGS TIME (IGST) AND TO WEIGHTED MEAN POLE: 
/* PCV:IGS20_2233 OL/AL:FES2004  NONE     Y  ORB:CMB CLK:CMB
*  2022 11 13 11 15  0.00000000
PG01   -106.644731  15270.067829 -21996.562163    252.474476  2  5  5  99       
PG02  -3420.367302 -15197.318530  22161.746456   -638.048592  4  3  4 108       
PG03   7737.785781  20395.341748 -15352.578702   -372.478351  5  5  6 100       
PG04    150.513243  25208.802663   8198.223302    -87.205310  6  8  5  54       
PG05   4725.728885 -15033.451102  21187.575646   -104.130117  4  4  5 102       
PG06  25611.370692  -5867.774732  -4085.320042    517.074020  8  3  5  94       
PG07  15971.048018   9343.813164  19645.715313    287.938456  5  4  5  90       
PG08  -6095.917709  25504.807446   2624.429370    -93.610253  4  2  5  84       
PG09   9029.241867  18305.795850  16891.089454   -269.329858  4  4  4  74       
PG10 -22370.585349  -9394.444891 -11011.605344    -11.714025  5  5  5  75       
PG11  22308.236203 -12090.394829   7791.476588    -39.083883  8  6  8  81       
PG12  -5573.236041 -20874.919994 -15786.575589   -303.729972  7  5  4  85       
PG13  13180.252656 -21345.208715   8256.050454    423.791972  4  3  4  77       
PG14  22150.984283  11391.333986  -9376.405147    -83.585330  9  5  6  94       
PG15   2820.589622 -26149.925342   1868.110580    -12.787772  3  2  7  96       
PG16 -10968.919123  10147.265409  21678.561918   -526.892122  7  5  3 102       
PG17  13869.056038   4882.154975 -21675.632033    677.503986  5  3  4 115       
PG18 -17330.104089  -7702.617910  18654.752734    -20.373602  9  6  6 113       
PG19  16250.881880  -6849.324027 -20011.054488    236.774073  6  3  4 102       
PG20  16322.069601  -6744.822685  19787.908671    470.495805  5  3     89       
PG21  -8836.950252  17143.165935 -17304.954965    156.143756  5  6  4 101       
PG22 -15945.872418  10447.098840 -17999.649626    363.718868  5  3  3 102       
PG23 -21031.238436 -16319.546566   -913.830035     -1.044264  8  6  5  60       
PG24   3477.696042 -17578.209689 -19814.110119     60.831212  3  5  1 100       
PG25 -15674.794392 -20338.149277  -7627.357183    392.166305  6  6  4  90       
PG26 -19295.330564   2130.299399  18170.572569    235.650037  8  6  7 112       
PG27 -12529.584528  19249.594007  12761.096642    178.941467  4  4  4  97       
PG29  -5843.846359 -20137.882619  16210.313050   -566.880964  5  3  2 108       
PG30  24034.473891   1010.543396  11626.108265   -536.738750  6  4  3  81       
PG31 -25935.434996   6246.574177  -2845.926890   -200.037813  7  5  6  65       
PG32 -15193.328179  -1232.746266 -21592.188254   -294.774195  4  4  7 104       
*  2022 11 13 11 30  0.00000000
PG01  -2385.367541  16051.280355 -21259.713924    252.469363  3  4  4 114       
PG02  -1271.480989 -16197.774113  21678.197348   -638.046973  4  3  3 108       
PG03   6223.553706  19342.478672 -17287.462475   -372.480333  5  6  6 104       
PG04   -241.526557  25932.442542   5480.630863    -87.199326  6  8  4  56       
PG05   6752.600247 -13591.807471  21615.284468   -104.130950  4  4  5 101       
PG06  25077.386410  -5489.097344  -6899.763568    517.082402  8  3  6  97       
PG07  13927.353173  10207.210958  20720.973438    287.934109  4  4  5  95       
PG08  -6310.267961  25000.549881   5452.330908    -93.611569  4  2  5  66       
PG09   8594.576022  20103.113676  14970.774619   -269.324828  4  5  4  83       
PG10 -23138.296422 -10231.226567  -8440.811141    -11.715611  5  5  5  68       
PG11  23080.183022 -12092.628504   5053.694444    -39.089178  9  6  8  80       
PG12  -4114.934564 -19709.048516 -17645.529850   -303.734031  7  5  4  98       
PG13  13074.050454 -20207.558124  10846.051588    423.799809  4  3  4  84       
PG14  22680.958474  12187.781765  -6751.650706    -83.580738  8  5  6 112       
PG15   3173.983371 -25716.195048   4646.040950    -12.785057  3  2  6  89       
PG16 -12784.875332   8391.567855  21476.923281   -526.892355  7  5  4 108       
PG17  13287.497540   7368.369516 -21335.094295    677.506935  4  3  4 115       
PG18 -15291.136539  -8546.994144  20007.674467    -20.386201  9  6  6 117       
PG19  15734.299440  -4600.107253 -21074.554318    236.778741  6  3  4 108       
PG20  18161.986594  -5532.297192  18498.219804    470.492947  6  4     93       
PG21 -10738.750497  17818.380740 -15445.973382    156.142943  5  5  5 108       
PG22 -15558.330787   8250.707150 -19408.209227    363.725352  5  3  3 101       
PG23 -20853.159868 -16454.533692   1953.685370     -1.044099  8  5  4  86       
PG24   5485.185268 -18371.289781 -18541.813021     60.816926  3  4    108       
PG25 -14771.040039 -19905.852837 -10207.779093    392.169561  6  6  5  91       
PG26 -20824.600231    830.292868  16553.255790    235.651070  8  5  7 112       
PG27 -12484.018112  17603.095430  14989.438094    178.933934  4  4  4  94       
PG29  -5294.721927 -21797.692585  14115.588945   -566.883123  5  3  2 107       
PG30  22766.517949   1739.875823  13868.156002   -536.738468  5  3  4  89       
PG31 -25579.854657   5873.816960  -5609.149841   -200.038842  7  5  6  67       
PG32 -14831.579759  -3709.592268 -21577.991667   -294.785476  5  4  6  94       
*  2022 11 13 11 45  0.00000000
PG01  -4525.552455  16921.125942 -20164.584035    252.464228  3  4  3 108       
PG02    755.734637 -17279.385351  20843.084493   -638.045412  5  4  3 115       
PG03   4489.767849  18257.427906 -18928.773598   -372.482297  5  6  6 105       
PG04   -554.467819  26364.374991   2668.134694    -87.193362  7  8  4  65       
PG05   8873.612036 -12243.119608  21664.762047   -104.132541  4  4  4 106       
PG06  24280.388851  -4952.205821  -9595.740140    517.090801  8  3  6 114       
PG07  11837.655418  11218.244948  21455.735446    287.930166  4  4  5 100       
PG08  -6526.801320  24191.211818   8184.185787    -93.613768  4  3  5  80       
PG09   8270.035747  21687.981022  12790.995894   -269.319757  4  6  3  74       
PG10 -23707.404791 -10850.046241  -5726.505979    -11.717412  5  5  4  33       
PG11  23557.478198 -12020.169442   2228.750038    -39.094600 10  6  7  89       
PG12  -2449.117980 -18501.697547 -19207.971157   -303.737982  7  5  4 102       
PG13  12962.734591 -18787.946109  13245.950801    423.804417  4  2  5  82       
PG14  23010.936265  12771.500940  -4011.452622    -83.576156  8  6  6  99       
PG15   3561.281308 -24986.649842   7341.808118    -12.782147  4  3  6  93       
PG16 -14652.913130   6766.273921  20897.504662   -526.892412  7  5  4 115       
PG17  12849.030734   9820.978583 -20611.814347    677.509966  4  4  4 122       
PG18 -13177.190711  -9554.369722  21017.576579    -20.398783  8  6  6 121       
PG19  15322.044591  -2231.586214 -21781.067047    236.783604  6  4  4 125       
PG20  19913.852073  -4483.763977  16888.323498    470.490688  7  4     73       
PG21 -12400.049869  18473.828408 -13300.765579    156.142051  5  5  5 100       
PG22 -15257.792393   5896.640876 -20469.159636    363.731811  5  3  3  95       
PG23 -20415.026635 -16419.628714   4787.857075     -1.043945  8  5  4  95       
PG24   7317.418902 -19183.187988 -16954.448099     60.802516  3  4    108       
PG25 -13619.002476 -19360.673139 -12617.329259    392.172844  6  5  5  88       
PG26 -22245.718621   -286.472437  14652.819429    235.652109  9  5  7 118       
PG27 -12502.162163  15717.271390  16951.373520    178.926309  4  4  4 110       
PG29  -4880.218595 -23236.605278  11776.379632   -566.885205  5  3  2 111       
PG30  21317.131418   2625.820249  15875.634299   -536.738138  5  3  5  83       
PG31 -24965.025769   5364.431363  -8278.798138   -200.039885  7  5  5  83       
PG32 -14599.714144  -6176.685743 -21187.658104   -294.796754  5  5  6 101       
EOF
